{
  "type": "FeatureCollection",
  "features": [
    {
      "type": "Feature",
      "properties": {
        "norad_id": 64202,
        "name": "GPS BIII-8  (PRN 21)",
        "group": "gnss",
        "lat": -36.53246542902764,
        "lon": -110.0395162702761,
        "alt_km": 20184.95261206774,
        "timestamp": "2025-12-07T22:37:43.323495+00:00",
        "meta_object_name": "GPS BIII-8  (PRN 21)",
        "meta_object_id": "2025-116A",
        "meta_epoch": "2025-12-07T02:40:40.917216",
        "meta_mean_motion": 2.00558359,
        "meta_eccentricity": 0.00051354,
        "meta_inclination": 55.1017,
        "meta_ra_of_asc_node": 38.8682,
        "meta_arg_of_pericenter": 307.3727,
        "meta_mean_anomaly": 39.0167,
        "meta_ephemeris_type": 0,
        "meta_classification_type": "U",
        "meta_norad_cat_id": 64202,
        "meta_element_set_no": 999,
        "meta_rev_at_epoch": 401,
        "meta_bstar": 0,
        "meta_mean_motion_dot": -7.4e-07,
        "meta_mean_motion_ddot": 0,
        "tle_line1": "1 64202U 25116A   25341.11158469 -.00000074  00000+0  00000+0 0  9999",
        "tle_line2": "2 64202  55.1017  38.8682 0005135 307.3727  39.0167  2.00558359  4011"
      },
      "geometry": {
        "type": "Point",
        "coordinates": [
          -110.0395162702761,
          -36.53246542902764
        ]
      }
    },
    {
      "type": "Feature",
      "properties": {
        "norad_id": 65590,
        "name": "COSMOS 2596 (708K)",
        "group": "gnss",
        "lat": -37.41983149342675,
        "lon": -59.53772536823976,
        "alt_km": 19099.900963361066,
        "timestamp": "2025-12-07T22:37:43.323506+00:00",
        "meta_object_name": "COSMOS 2596 (708K)",
        "meta_object_id": "2025-206B",
        "meta_epoch": "2025-12-07T02:40:02.915904",
        "meta_mean_motion": 2.13100202,
        "meta_eccentricity": 0.00140103,
        "meta_inclination": 64.7475,
        "meta_ra_of_asc_node": 321.6695,
        "meta_arg_of_pericenter": 305.1353,
        "meta_mean_anomaly": 94.5445,
        "meta_ephemeris_type": 0,
        "meta_classification_type": "U",
        "meta_norad_cat_id": 65590,
        "meta_element_set_no": 999,
        "meta_rev_at_epoch": 182,
        "meta_bstar": 0,
        "meta_mean_motion_dot": -5.1e-07,
        "meta_mean_motion_ddot": 0,
        "tle_line1": "1 65590U 25206B   25341.11114486 -.00000051  00000+0  00000+0 0  9996",
        "tle_line2": "2 65590  64.7475 321.6695 0014010 305.1353  94.5445  2.13100202  1821"
      },
      "geometry": {
        "type": "Point",
        "coordinates": [
          -59.53772536823976,
          -37.41983149342675
        ]
      }
    }
  ]
}